NIMIQ 2                 
1 27632U 02062A   26182.18169632 -.00000065  00000+0  00000+0 0  9995
2 27632   9.4765  56.7483 0005719  39.3969 139.3215  1.00272155 44327
USA 167                 
1 27691U 03008A   26181.60686983  .00000007  00000+0  00000+0 0  9995
2 27691  10.9863  43.2869 0003709 320.7424  11.4284  1.00272500  6909
USA 169 (MILSTAR-2 4)   
1 27711U 03012A   26181.40461566 -.00000247  00000+0  00000+0 0  9996
2 27711  12.3684  29.7319 0100455   9.9194 176.6393  1.00271944 33089
ASIASAT 4               
1 27718U 03014A   26181.63169653 -.00000216  00000+0  00000+0 0  9998
2 27718   4.7376  75.5794 0002834  28.3036 189.7470  1.00269842 45434
HELLAS-SAT 2            
1 27811U 03020A   26182.01224139 -.00000079  00000+0  00000+0 0  9990
2 27811   7.3871  67.7200 0003216  53.8929 151.8393  1.00272308 42983
THURAYA-2               
1 27825U 03026A   26181.73776998  .00000130  00000+0  00000+0 0  9991
2 27825   8.8605  31.9158 0002582  17.9211 178.6022  1.00275104 84488
OPTUS C1                
1 27831U 03028B   26181.54769503 -.00000146  00000+0  00000+0 0  9991
2 27831   6.9213  69.2495 0005770  25.9498 176.3506  1.00271885 53193
USA 170                 
1 27875U 03040A   26179.94637637  .00000128  00000+0  00000+0 0  9995
2 27875  10.5240  47.8365 0002382  64.6735 169.3974  1.00272204 33117
GALAXY 13 (HORIZONS-1)  
1 27954U 03044A   26182.19322630  .00000142  00000+0  00000+0 0  9998
2 27954   1.4547  83.6861 0001690  11.6082 103.4882  1.00271648 46719
YAMAL 202               
1 28089U 03053A   26181.63548345 -.00000075  00000+0  00000+0 0  9995
2 28089   6.3767  70.7754 0003240  20.5875 219.6481  1.00271575 82834
UFO 11 (USA 174)        
1 28117U 03057A   26182.10050433 -.00000099  00000+0  00000+0 0  9996
2 28117   8.9476  33.7580 0002465  78.0978 279.0887  1.00272099 82581
USA 176 (DSP 22)        
1 28158U 04004A   26181.43415471 -.00000292  00000+0  00000+0 0  9991
2 28158  12.0792  25.9702 0000954 322.1130  37.4477  1.00272503 33066
ABS-4 (MOBISAT-1)       
1 28184U 04007A   26182.16893565  .00000046  00000+0  00000+0 0  9994
2 28184   6.0759  71.8377 0004503  27.6189 301.5426  1.00269892 52476
INTELSAT 10-02          
1 28358U 04022A   26181.94273499  .00000000  00000+0  00000+0 0  9997
2 28358   0.0358 272.5237 0000244 243.8402 101.0248  1.00272440 80694
ANIK F2                 
1 28378U 04027A   26181.99223567 -.00000042  00000+0  00000+0 0  9997
2 28378   3.3212  79.2710 0004238  18.6274  67.2377  1.00272505 41405
AMC-15                  
1 28446U 04041A   26182.15044918 -.00000078  00000+0  00000+0 0  9998
2 28446   0.0140  11.5046 0002503  87.7944 129.0201  1.00271950 79441
NSS-10                  
1 28526U 05003A   26182.20443389 -.00000246  00000+0  00000+0 0  9994
2 28526   6.4826  70.2855 0003095  26.0954 219.0213  1.00271047 53290
INMARSAT 4-F1           
1 28628U 05009A   26181.76440395  .00000040  00000+0  00000+0 0  9998
2 28628   5.1846  42.7725 0002936  58.0924 271.2613  1.00270683 77808
DIRECTV 8               
1 28659U 05019A   26182.16919867  .00000000  00000+0  00000+0 0  9999
2 28659   0.0197  17.9624 0003357  91.3936 111.7395  1.00270632 77212
GALAXY 28 (G-28)        
1 28702U 05022A   26182.11561485 -.00000192  00000+0  00000+0 0  9999
2 28702   3.3329  78.7684 0002584  14.8910 200.0371  1.00270724 52118
THAICOM 4               
1 28786U 05028A   26182.04419734 -.00000352  00000+0  00000+0 0  9996
2 28786   0.2796  85.7035 0001961   0.1700 328.6510  1.00271239 52388
ANIK F1R                
1 28868U 05036A   26182.18169632 -.00000068  00000+0  00000+0 0  9994
2 28868   4.3466  76.4110 0004377  12.1318 148.8054  1.00272123 46595
SYRACUSE 3A             
1 28885U 05041B   26181.89628159  .00000136  00000+0  00000+0 0  9995
2 28885   4.6763  75.6694 0002764  20.2174 192.3876  1.00273987 75882
INMARSAT 4-F2           
1 28899U 05044A   26181.97138749 -.00000253  00000+0  00000+0 0  9994
2 28899   5.1113  43.6651 0003279  45.8264 322.7304  1.00271001 75661
METEOSAT-9 (MSG-2)      
1 28912U 05049B   26181.73820331  .00000127  00000+0  00000+0 0  9993
2 28912   9.3903  54.0333 0001827   1.4312 174.9175  1.00279300  7132
EUTELSAT 174A           
1 28924U 05052A   26181.63142258  .00000017  00000+0  00000+0 0  9992
2 28924   4.2517  76.3671 0006542  21.0443 222.6357  1.00275366 52461
ECHOSTAR 10             
1 28935U 06003A   26182.18169632 -.00000045  00000+0  00000+0 0  9999
2 28935   0.0350 306.3635 0001871 114.9308 173.1698  1.00272439 74606
SPAINSAT                
1 28945U 06007A   26181.31068482 -.00000207  00000+0  00000+0 0  9999
2 28945   0.5957  86.3392 0005098  11.8989 261.8144  1.00270569 74350
JCSAT-5A                
1 29045U 06010A   26182.04040817 -.00000318  00000+0  00000+0 0  9991
2 29045   1.1439  84.0891 0002200   9.1732 332.4216  1.00269830 73905
ASTRA 1KR               
1 29055U 06012A   26182.16052894  .00000129  00000+0  00000+0 0  9994
2 29055   0.5082  83.2338 0003768   9.2071 263.5599  1.00270965 45837
GALAXY 16 (G-16)        
1 29236U 06023A   26182.16746686 -.00000117  00000+0  00000+0 0  9994
2 29236   0.0090  97.7640 0002736 357.0254 145.7274  1.00273038 73116
EUTELSAT 33F            
1 29270U 06032A   26182.16338895  .00000165  00000+0  00000+0 0  9993
2 29270   1.6958  82.1013 0003750  15.7634 273.2445  1.00272257 47449
