OBJECT_NAME,OBJECT_ID,EPOCH,MEAN_MOTION,ECCENTRICITY,INCLINATION,RA_OF_ASC_NODE,ARG_OF_PERICENTER,MEAN_ANOMALY,EPHEMERIS_TYPE,CLASSIFICATION_TYPE,NORAD_CAT_ID,ELEMENT_SET_NO,REV_AT_EPOCH,BSTAR,MEAN_MOTION_DOT,MEAN_MOTION_DDOT
NIMIQ 2,2002-062A,2026-07-01T04:21:38.562048,1.00272155,.0005719,9.4765,56.7483,39.3969,139.3215,0,U,27632,999,4432,0,-.65E-6,0
USA 167,2003-008A,2026-06-30T14:33:53.553312,1.00272500,.00037096,10.9863,43.2869,320.7424,11.4284,0,U,27691,999,690,0,.7E-7,0
USA 169 (MILSTAR-2 4),2003-012A,2026-06-30T09:42:38.793024,1.00271944,.01004553,12.3684,29.7319,9.9194,176.6393,0,U,27711,999,3308,0,-.247E-5,0
ASIASAT 4,2003-014A,2026-06-30T15:09:38.580192,1.00269842,.0002834,4.7376,75.5794,28.3036,189.7470,0,U,27718,999,4543,0,-.216E-5,0
HELLAS-SAT 2,2003-020A,2026-07-01T00:17:37.656096,1.00272308,.0003216,7.3871,67.7200,53.8929,151.8393,0,U,27811,999,4298,0,-.79E-6,0
THURAYA-2,2003-026A,2026-06-30T17:42:23.326272,1.00275104,.00025827,8.8605,31.9158,17.9211,178.6022,0,U,27825,999,8448,0,.13E-5,0
OPTUS C1,2003-028B,2026-06-30T13:08:40.850592,1.00271885,.00057709,6.9213,69.2495,25.9498,176.3506,0,U,27831,999,5319,0,-.146E-5,0
USA 170,2003-040A,2026-06-28T22:42:46.918368,1.00272204,.00023828,10.5240,47.8365,64.6735,169.3974,0,U,27875,999,3311,0,.128E-5,0
GALAXY 13 (HORIZONS-1),2003-044A,2026-07-01T04:38:14.752320,1.00271648,.000169,1.4547,83.6861,11.6082,103.4882,0,U,27954,999,4671,0,.142E-5,0
YAMAL 202,2003-053A,2026-06-30T15:15:05.770080,1.00271575,.00032404,6.3767,70.7754,20.5875,219.6481,0,U,28089,999,8283,0,-.75E-6,0
UFO 11 (USA 174),2003-057A,2026-07-01T02:24:43.574112,1.00272099,.0002465,8.9476,33.7580,78.0978,279.0887,0,U,28117,999,8258,0,-.99E-6,0
USA 176 (DSP 22),2004-004A,2026-06-30T10:25:10.966944,1.00272503,.00009545,12.0792,25.9702,322.1130,37.4477,0,U,28158,999,3306,0,-.292E-5,0
ABS-4 (MOBISAT-1),2004-007A,2026-07-01T04:03:16.040160,1.00269892,.0004503,6.0759,71.8377,27.6189,301.5426,0,U,28184,999,5247,0,.46E-6,0
INTELSAT 10-02,2004-022A,2026-06-30T22:37:32.303136,1.00272440,.0000244,0.0358,272.5237,243.8402,101.0248,0,U,28358,999,8069,0,0,0
ANIK F2,2004-027A,2026-06-30T23:48:49.161888,1.00272505,.0004238,3.3212,79.2710,18.6274,67.2377,0,U,28378,999,4140,0,-.42E-6,0
AMC-15,2004-041A,2026-07-01T03:36:38.809152,1.00271950,.0002503,0.0140,11.5046,87.7944,129.0201,0,U,28446,999,7944,0,-.78E-6,0
NSS-10,2005-003A,2026-07-01T04:54:23.088096,1.00271047,.0003095,6.4826,70.2855,26.0954,219.0213,0,U,28526,999,5329,0,-.246E-5,0
INMARSAT 4-F1,2005-009A,2026-06-30T18:20:44.501280,1.00270683,.0002936,5.1846,42.7725,58.0924,271.2613,0,U,28628,999,7780,0,.4E-6,0
DIRECTV 8,2005-019A,2026-07-01T04:03:38.765088,1.00270632,.0003357,0.0197,17.9624,91.3936,111.7395,0,U,28659,999,7721,0,0,0
GALAXY 28 (G-28),2005-022A,2026-07-01T02:46:29.123040,1.00270724,.0002584,3.3329,78.7684,14.8910,200.0371,0,U,28702,999,5211,0,-.192E-5,0
THAICOM 4,2005-028A,2026-07-01T01:03:38.650176,1.00271239,.0001961,0.2796,85.7035,0.1700,328.6510,0,U,28786,999,5238,0,-.352E-5,0
ANIK F1R,2005-036A,2026-07-01T04:21:38.562048,1.00272123,.0004377,4.3466,76.4110,12.1318,148.8054,0,U,28868,999,4659,0,-.68E-6,0
SYRACUSE 3A,2005-041B,2026-06-30T21:30:38.729376,1.00273987,.0002764,4.6763,75.6694,20.2174,192.3876,0,U,28885,999,7588,0,.136E-5,0
INMARSAT 4-F2,2005-044A,2026-06-30T23:18:47.879136,1.00271001,.0003279,5.1113,43.6651,45.8264,322.7304,0,U,28899,999,7566,0,-.253E-5,0
METEOSAT-9 (MSG-2),2005-049B,2026-06-30T17:43:00.765984,1.00279300,.00018275,9.3903,54.0333,1.4312,174.9175,0,U,28912,999,713,0,.127E-5,0
EUTELSAT 174A,2005-052A,2026-06-30T15:09:14.910912,1.00275366,.0006542,4.2517,76.3671,21.0443,222.6357,0,U,28924,999,5246,0,.17E-6,0
ECHOSTAR 10,2006-003A,2026-07-01T04:21:38.562048,1.00272439,.0001871,0.0350,306.3635,114.9308,173.1698,0,U,28935,999,7460,0,-.45E-6,0
SPAINSAT,2006-007A,2026-06-30T07:27:23.168448,1.00270569,.00050988,0.5957,86.3392,11.8989,261.8144,0,U,28945,999,7435,0,-.207E-5,0
JCSAT-5A,2006-010A,2026-07-01T00:58:11.265888,1.00269830,.00022,1.1439,84.0891,9.1732,332.4216,0,U,29045,999,7390,0,-.318E-5,0
ASTRA 1KR,2006-012A,2026-07-01T03:51:09.700416,1.00270965,.0003768,0.5082,83.2338,9.2071,263.5599,0,U,29055,999,4583,0,.129E-5,0
GALAXY 16 (G-16),2006-023A,2026-07-01T04:01:09.136704,1.00273038,.0002736,0.0090,97.7640,357.0254,145.7274,0,U,29236,999,7311,0,-.117E-5,0
EUTELSAT 33F,2006-032A,2026-07-01T03:55:16.805280,1.00272257,.000375,1.6958,82.1013,15.7634,273.2445,0,U,29270,999,4744,0,.165E-5,0
